     3.04           N: GNSS NAV DATA    M: Mixed            RINEX VERSION / TYPE
CONVBIN 2.4.3                           20251028 083958 UTC PGM / RUN BY / DATE 
format: u-blox UBX                                          COMMENT             
log: D:\GPdata\10_28_2\fingure_up_place_2_10_28_2.ubx       COMMENT             
                                                            END OF HEADER       
C37 2025 10 28 08 00 00 -.886784167960D-03 -.130473409854D-11  .000000000000D+00
      .100000000000D+01  .410937500000D+01  .417195949314D-08  .149030775904D+01
      .336207449436D-06  .646637286991D-03  .728433951735D-05  .528263052368D+04
      .201600000000D+06 -.456348061562D-07  .271493429861D+01 -.321306288242D-07
      .945781746235D+00  .207125000000D+03 -.523528641355D-02 -.677778232184D-08
     -.242867259253D-10  .000000000000D+00  .103400000000D+04  .000000000000D+00
      .200000000000D+01  .000000000000D+00 -.149000000000D-07 -.149000000000D-07
      .203190000000D+06  .100000000000D+01
C28 2025 10 28 08 00 00  .440867734142D-03  .451283455050D-11  .000000000000D+00
      .100000000000D+01  .106312500000D+03  .396159358770D-08  .173627259225D+01
      .526802614331D-05  .289217103273D-03  .543892383575D-05  .528263830948D+04
      .201600000000D+06  .172294676304D-07 -.147001574378D+01 -.162981450558D-07
      .951393946177D+00  .250171875000D+03 -.172053010593D+01 -.693743182902D-08
      .242867259253D-10  .000000000000D+00  .103400000000D+04  .000000000000D+00
      .200000000000D+01  .000000000000D+00 -.250000000000D-08 -.250000000000D-08
      .203190000000D+06  .100000000000D+01
C20 2025 10 28 08 00 00 -.894473632798D-03 -.699706959040D-11  .000000000000D+00
      .100000000000D+01 -.105890625000D+03  .325156401212D-08  .249035167938D+01
     -.533042475581D-05  .515764229931D-03  .582775101066D-05  .528264129639D+04
      .201600000000D+06  .144354999065D-07  .630909043231D+00  .265426933765D-07
      .985891522111D+00  .256078125000D+03  .161360010435D+00 -.655991610398D-08
     -.535736601294D-10  .000000000000D+00  .103400000000D+04  .000000000000D+00
      .200000000000D+01  .000000000000D+00  .140000000000D-07  .140000000000D-07
      .203190000000D+06  .100000000000D+01
C23 2025 10 28 08 00 00 -.567710842006D-03  .103046460254D-10  .000000000000D+00
      .100000000000D+01  .457812500000D+01  .426482050404D-08  .195683665598D+01
      .209081918001D-06  .238804146647D-03  .721169635653D-05  .528264281082D+04
      .201600000000D+06  .470317900181D-07  .271551267059D+01 -.293366611004D-07
      .944312259653D+00  .207437500000D+03  .278552006375D+00 -.685778565430D-08
     -.507163982558D-10  .000000000000D+00  .103400000000D+04  .000000000000D+00
      .200000000000D+01  .000000000000D+00  .239000000000D-07  .239000000000D-07
      .203190000000D+06  .100000000000D+01
C27 2025 10 28 08 00 00  .548539916053D-03  .500666175185D-11  .000000000000D+00
      .100000000000D+01  .107125000000D+03  .400552398901D-08 -.215921090017D+01
      .527035444975D-05  .441539683379D-03  .614207237959D-05  .528261929321D+04
      .201600000000D+06  .651925802231D-08 -.146971906107D+01 -.465661287308D-08
      .951518867677D+00  .232562500000D+03  .152737728832D+01 -.694421782597D-08
      .114290474943D-10  .000000000000D+00  .103400000000D+04  .000000000000D+00
      .200000000000D+01  .000000000000D+00 -.260000000000D-08 -.260000000000D-08
      .203190000000D+06  .100000000000D+01
C19 2025 10 28 08 00 00 -.944570638239D-03 -.167776903481D-11  .000000000000D+00
      .100000000000D+01 -.909687500000D+02  .335049670449D-08  .261712431705D+01
     -.452250242233D-05  .578276929446D-03  .583520159125D-05  .528263431740D+04
      .201600000000D+06  .116415321827D-07  .630280304447D+00  .149011611938D-07
      .985906457041D+00  .254937500000D+03 -.688366964813D+00 -.655813031531D-08
      .142863093678D-10  .000000000000D+00  .103400000000D+04  .000000000000D+00
      .200000000000D+01  .000000000000D+00  .116000000000D-07  .116000000000D-07
      .203190000000D+06  .100000000000D+01
C32 2025 10 28 08 00 00 -.958461547270D-03 -.249933407304D-11  .000000000000D+00
      .100000000000D+01 -.114421875000D+03  .339335563260D-08 -.227600813205D+01
     -.569224357605D-05  .265664537437D-03  .598514452577D-05  .528263760185D+04
      .201600000000D+06 -.335276126862D-07  .623111426543D+00 -.214204192162D-07
      .984721916180D+00  .248593750000D+03 -.507555123697D+00 -.666063458502D-08
     -.896465912832D-10  .000000000000D+00  .103400000000D+04  .000000000000D+00
      .200000000000D+01  .000000000000D+00 -.570000000000D-08 -.570000000000D-08
      .203190000000D+06  .100000000000D+01
C11 2025 10 28 08 00 00  .722837517969D-03  .157251989208D-10  .243945488809D-18
      .900000000000D+01  .889062500000D+02  .353264714893D-08  .285895518076D+01
      .423612073064D-05  .226482830476D-02  .499282032251D-05  .528264661980D+04
      .201600000000D+06  .423751771450D-07 -.142971917375D+01  .121071934700D-07
      .976324122721D+00  .268890625000D+03 -.157013649808D+01 -.668813573056D-08
      .321441960776D-10  .000000000000D+00  .103400000000D+04  .000000000000D+00
      .200000000000D+01  .000000000000D+00  .390000000000D-08  .170000000000D-08
      .203190000000D+06  .800000000000D+01
C06 2025 10 28 08 00 00  .225077499636D-03 -.293436386301D-10  .000000000000D+00
      .100000000000D+01 -.959843750000D+02  .132576950934D-08 -.203907707398D+01
     -.300304964185D-05  .502180808689D-02  .125705264509D-04  .649302342033D+04
      .201600000000D+06  .311993062496D-07  .227709825325D+01 -.139698386192D-07
      .947202533736D+00 -.142765625000D+03 -.253142638286D+01 -.172328606750D-08
      .318941856637D-09  .000000000000D+00  .103400000000D+04  .000000000000D+00
      .200000000000D+01  .000000000000D+00  .840000000000D-08 -.160000000000D-08
      .203190000000D+06  .000000000000D+00
C16 2025 10 28 08 00 00 -.925779109821D-03  .993782833802D-11  .000000000000D+00
      .100000000000D+01 -.100250000000D+03  .124540901914D-08 -.228385327895D+01
     -.322284176946D-05  .908982439432D-02  .127363018692D-04  .649342425919D+04
      .201600000000D+06  .633299350739D-07  .227725387116D+01 -.223517417908D-07
      .962762172852D+00 -.144234375000D+03 -.218001761828D+01 -.164864010105D-08
      .316798910232D-09  .000000000000D+00  .103400000000D+04  .000000000000D+00
      .200000000000D+01  .000000000000D+00 -.270000000000D-08  .480000000000D-08
      .203190000000D+06  .000000000000D+00
C09 2025 10 28 08 00 00 -.834057573229D-05  .344240191907D-10  .000000000000D+00
      .100000000000D+01 -.813750000000D+02  .128969657818D-08 -.259622650303D+01
     -.244798138738D-05  .146954325028D-01  .125975348055D-04  .649299371338D+04
      .201600000000D+06  .568106770515D-07  .232409337303D+01 -.745058059692D-08
      .952482750753D+00 -.150671875000D+03 -.226721026853D+01 -.167078388057D-08
      .309655755548D-09  .000000000000D+00  .103400000000D+04  .000000000000D+00
      .200000000000D+01  .000000000000D+00  .660000000000D-08  .390000000000D-08
      .203190000000D+06  .000000000000D+00
C07 2025 10 28 08 00 00  .288938055746D-03  .257651677771D-10  .000000000000D+00
      .100000000000D+01  .398437500000D+03  .153542109931D-08  .228235529326D+01
      .131633132696D-04  .500035774894D-02  .147256068885D-04  .649279716873D+04
      .201600000000D+06 -.423751771450D-07 -.209314145572D+01 -.189058482647D-06
      .837198019629D+00 -.263359375000D+03 -.251363853079D+01 -.203008456117D-08
     -.540022494104D-09  .000000000000D+00  .103400000000D+04  .000000000000D+00
      .200000000000D+01  .000000000000D+00  .145000000000D-07  .110000000000D-08
      .203190000000D+06  .000000000000D+00
C10 2025 10 28 08 00 00 -.263884430751D-03 -.201625383056D-10  .000000000000D+00
      .100000000000D+01  .396468750000D+03  .157327981913D-08  .199990940419D+01
      .130557455122D-04  .108184341807D-01  .155707821250D-04  .649375022125D+04
      .201600000000D+06 -.889413058758D-07 -.209828780257D+01 -.227708369493D-06
      .839515956272D+00 -.296218750000D+03 -.241239131787D+01 -.204115645093D-08
     -.557523223080D-09  .000000000000D+00  .103400000000D+04  .000000000000D+00
      .200000000000D+01  .000000000000D+00  .560000000000D-08  .300000000000D-08
      .203190000000D+06  .000000000000D+00
C13 2025 10 28 08 00 00 -.176664325409D-03 -.143316469803D-10  .000000000000D+00
      .100000000000D+01 -.341609375000D+03  .864678874489D-09 -.301052744124D+00
     -.114217400551D-04  .571848801337D-02 -.177277252078D-05  .649364810181D+04
      .201600000000D+06 -.123865902424D-06  .100301386641D+00  .456348061562D-07
      .104603874209D+01  .315328125000D+03 -.230605940401D+01 -.224616499036D-08
     -.120004998690D-09  .000000000000D+00  .103400000000D+04  .000000000000D+00
      .200000000000D+01  .000000000000D+00 -.970000000000D-08  .270000000000D-08
      .203190000000D+06  .000000000000D+00
